[{"OBJECT_NAME":"SL-14 R/B","OBJECT_ID":"1986-006B","EPOCH":"2026-03-05T14:48:30.348288","MEAN_MOTION":14.86808748,"ECCENTRICITY":0.0075131,"INCLINATION":82.5233,"RA_OF_ASC_NODE":263.5714,"ARG_OF_PERICENTER":286.5895,"MEAN_ANOMALY":72.708,"EPHEMERIS_TYPE":0,"CLASSIFICATION_TYPE":"U","NORAD_CAT_ID":16496,"ELEMENT_SET_NO":999,"REV_AT_EPOCH":14860,"BSTAR":8.7735e-5,"MEAN_MOTION_DOT":8.48e-6,"MEAN_MOTION_DDOT":0},{"OBJECT_NAME":"COSMOS 1743","OBJECT_ID":"1986-034A","EPOCH":"2026-03-05T12:46:50.166912","MEAN_MOTION":15.58209015,"ECCENTRICITY":0.00019691,"INCLINATION":82.5295,"RA_OF_ASC_NODE":78.1932,"ARG_OF_PERICENTER":325.3442,"MEAN_ANOMALY":34.7685,"EPHEMERIS_TYPE":0,"CLASSIFICATION_TYPE":"U","NORAD_CAT_ID":16719,"ELEMENT_SET_NO":999,"REV_AT_EPOCH":17960,"BSTAR":0.00052859989,"MEAN_MOTION_DOT":0.00040057,"MEAN_MOTION_DDOT":0},{"OBJECT_NAME":"SL-14 R/B","OBJECT_ID":"1986-046B","EPOCH":"2026-03-05T13:32:05.540928","MEAN_MOTION":14.85585893,"ECCENTRICITY":0.0021742,"INCLINATION":82.4782,"RA_OF_ASC_NODE":84.0813,"ARG_OF_PERICENTER":239.7797,"MEAN_ANOMALY":120.1266,"EPHEMERIS_TYPE":0,"CLASSIFICATION_TYPE":"U","NORAD_CAT_ID":16792,"ELEMENT_SET_NO":999,"REV_AT_EPOCH":12579,"BSTAR":7.1559e-5,"MEAN_MOTION_DOT":6.45e-6,"MEAN_MOTION_DDOT":0},{"OBJECT_NAME":"SL-14 R/B","OBJECT_ID":"1986-055B","EPOCH":"2026-03-05T16:56:40.934976","MEAN_MOTION":14.8563874,"ECCENTRICITY":0.001853,"INCLINATION":82.5209,"RA_OF_ASC_NODE":130.4184,"ARG_OF_PERICENTER":350.0678,"MEAN_ANOMALY":133.4923,"EPHEMERIS_TYPE":0,"CLASSIFICATION_TYPE":"U","NORAD_CAT_ID":16882,"ELEMENT_SET_NO":999,"REV_AT_EPOCH":11877,"BSTAR":7.0192681e-5,"MEAN_MOTION_DOT":6.34e-6,"MEAN_MOTION_DDOT":0},{"OBJECT_NAME":"AJISAI (EGS)","OBJECT_ID":"1986-061A","EPOCH":"2026-03-05T22:35:16.706112","MEAN_MOTION":12.44515607,"ECCENTRICITY":0.00112608,"INCLINATION":50.008,"RA_OF_ASC_NODE":104.8749,"ARG_OF_PERICENTER":277.3952,"MEAN_ANOMALY":152.3776,"EPHEMERIS_TYPE":0,"CLASSIFICATION_TYPE":"U","NORAD_CAT_ID":16908,"ELEMENT_SET_NO":999,"REV_AT_EPOCH":46753,"BSTAR":0.00013981117,"MEAN_MOTION_DOT":-7.7e-7,"MEAN_MOTION_DDOT":0},{"OBJECT_NAME":"COSMOS 1812","OBJECT_ID":"1987-003A","EPOCH":"2026-03-06T03:08:00.778848","MEAN_MOTION":16.49575463,"ECCENTRICITY":0.0011771,"INCLINATION":82.4628,"RA_OF_ASC_NODE":199.5909,"ARG_OF_PERICENTER":272.0058,"MEAN_ANOMALY":87.9898,"EPHEMERIS_TYPE":0,"CLASSIFICATION_TYPE":"U","NORAD_CAT_ID":17295,"ELEMENT_SET_NO":999,"REV_AT_EPOCH":14391,"BSTAR":0.00014059,"MEAN_MOTION_DOT":0.12040831,"MEAN_MOTION_DDOT":-1.2829e-6},{"OBJECT_NAME":"SL-14 R/B","OBJECT_ID":"1987-024B","EPOCH":"2026-03-05T14:22:21.549792","MEAN_MOTION":14.86127704,"ECCENTRICITY":0.0016679,"INCLINATION":82.525,"RA_OF_ASC_NODE":96.6097,"ARG_OF_PERICENTER":274.7491,"MEAN_ANOMALY":85.182,"EPHEMERIS_TYPE":0,"CLASSIFICATION_TYPE":"U","NORAD_CAT_ID":17567,"ELEMENT_SET_NO":999,"REV_AT_EPOCH":8752,"BSTAR":6.726e-5,"MEAN_MOTION_DOT":6.15e-6,"MEAN_MOTION_DDOT":0},{"OBJECT_NAME":"COSMOS 1833","OBJECT_ID":"1987-027A","EPOCH":"2026-03-05T21:30:19.431936","MEAN_MOTION":14.13055669,"ECCENTRICITY":0.00244527,"INCLINATION":70.9231,"RA_OF_ASC_NODE":333.9914,"ARG_OF_PERICENTER":219.8148,"MEAN_ANOMALY":140.118,"EPHEMERIS_TYPE":0,"CLASSIFICATION_TYPE":"U","NORAD_CAT_ID":17589,"ELEMENT_SET_NO":999,"REV_AT_EPOCH":978,"BSTAR":-5.0299411e-5,"MEAN_MOTION_DOT":-1.42e-6,"MEAN_MOTION_DDOT":0},{"OBJECT_NAME":"SL-16 R/B","OBJECT_ID":"1987-027B","EPOCH":"2026-03-05T22:49:52.917024","MEAN_MOTION":14.17165783,"ECCENTRICITY":0.00035972,"INCLINATION":71.0014,"RA_OF_ASC_NODE":284.3735,"ARG_OF_PERICENTER":151.0368,"MEAN_ANOMALY":209.0956,"EPHEMERIS_TYPE":0,"CLASSIFICATION_TYPE":"U","NORAD_CAT_ID":17590,"ELEMENT_SET_NO":999,"REV_AT_EPOCH":1481,"BSTAR":-4.6207565e-5,"MEAN_MOTION_DOT":-1.41e-6,"MEAN_MOTION_DDOT":0},{"OBJECT_NAME":"SL-14 R/B","OBJECT_ID":"1987-038B","EPOCH":"2026-03-05T17:26:06.134496","MEAN_MOTION":14.85365418,"ECCENTRICITY":0.00193431,"INCLINATION":82.5008,"RA_OF_ASC_NODE":300.5415,"ARG_OF_PERICENTER":173.2963,"MEAN_ANOMALY":186.8516,"EPHEMERIS_TYPE":0,"CLASSIFICATION_TYPE":"U","NORAD_CAT_ID":17912,"ELEMENT_SET_NO":999,"REV_AT_EPOCH":7864,"BSTAR":6.7928486e-5,"MEAN_MOTION_DOT":6.1e-6,"MEAN_MOTION_DDOT":0},{"OBJECT_NAME":"COSMOS 1844","OBJECT_ID":"1987-041A","EPOCH":"2026-03-05T22:26:46.256640","MEAN_MOTION":14.14552932,"ECCENTRICITY":0.00297923,"INCLINATION":70.8996,"RA_OF_ASC_NODE":42.0939,"ARG_OF_PERICENTER":23.4445,"MEAN_ANOMALY":336.8027,"EPHEMERIS_TYPE":0,"CLASSIFICATION_TYPE":"U","NORAD_CAT_ID":17973,"ELEMENT_SET_NO":999,"REV_AT_EPOCH":305,"BSTAR":-4.3374836e-5,"MEAN_MOTION_DOT":-1.32e-6,"MEAN_MOTION_DDOT":0},{"OBJECT_NAME":"SL-14 R/B","OBJECT_ID":"1987-055B","EPOCH":"2026-03-05T21:44:51.873216","MEAN_MOTION":14.85623815,"ECCENTRICITY":0.00214659,"INCLINATION":82.503,"RA_OF_ASC_NODE":352.5961,"ARG_OF_PERICENTER":29.952,"MEAN_ANOMALY":330.2919,"EPHEMERIS_TYPE":0,"CLASSIFICATION_TYPE":"U","NORAD_CAT_ID":18153,"ELEMENT_SET_NO":999,"REV_AT_EPOCH":6937,"BSTAR":7.9393758e-5,"MEAN_MOTION_DOT":7.14e-6,"MEAN_MOTION_DDOT":0},{"OBJECT_NAME":"COSMOS 1867","OBJECT_ID":"1987-060A","EPOCH":"2026-03-05T22:45:23.851008","MEAN_MOTION":14.315024,"ECCENTRICITY":0.00144398,"INCLINATION":65.0117,"RA_OF_ASC_NODE":317.1833,"ARG_OF_PERICENTER":278.4201,"MEAN_ANOMALY":81.5246,"EPHEMERIS_TYPE":0,"CLASSIFICATION_TYPE":"U","NORAD_CAT_ID":18187,"ELEMENT_SET_NO":999,"REV_AT_EPOCH":1940,"BSTAR":3.4462509e-5,"MEAN_MOTION_DOT":-8.0e-8,"MEAN_MOTION_DDOT":0},{"OBJECT_NAME":"SL-14 R/B","OBJECT_ID":"1988-001B","EPOCH":"2026-03-05T20:00:43.021728","MEAN_MOTION":14.85522565,"ECCENTRICITY":0.00166703,"INCLINATION":82.5146,"RA_OF_ASC_NODE":198.9857,"ARG_OF_PERICENTER":249.4815,"MEAN_ANOMALY":110.4612,"EPHEMERIS_TYPE":0,"CLASSIFICATION_TYPE":"U","NORAD_CAT_ID":18749,"ELEMENT_SET_NO":999,"REV_AT_EPOCH":4145,"BSTAR":9.7108884e-5,"MEAN_MOTION_DOT":8.64e-6,"MEAN_MOTION_DDOT":0},{"OBJECT_NAME":"COSMOS 1933","OBJECT_ID":"1988-020A","EPOCH":"2026-03-05T23:12:08.875296","MEAN_MOTION":15.17941453,"ECCENTRICITY":0.00035345,"INCLINATION":82.5098,"RA_OF_ASC_NODE":254.5963,"ARG_OF_PERICENTER":196.1307,"MEAN_ANOMALY":163.9815,"EPHEMERIS_TYPE":0,"CLASSIFICATION_TYPE":"U","NORAD_CAT_ID":18958,"ELEMENT_SET_NO":999,"REV_AT_EPOCH":4966,"BSTAR":0.00021388781,"MEAN_MOTION_DOT":4.37e-5,"MEAN_MOTION_DDOT":0},{"OBJECT_NAME":"SL-3 R/B","OBJECT_ID":"1988-032B","EPOCH":"2026-03-05T21:56:12.625728","MEAN_MOTION":15.19854131,"ECCENTRICITY":0.00242221,"INCLINATION":97.5188,"RA_OF_ASC_NODE":48.1781,"ARG_OF_PERICENTER":245.6454,"MEAN_ANOMALY":114.2252,"EPHEMERIS_TYPE":0,"CLASSIFICATION_TYPE":"U","NORAD_CAT_ID":19046,"ELEMENT_SET_NO":999,"REV_AT_EPOCH":5153,"BSTAR":0.00028804662,"MEAN_MOTION_DOT":6.155e-5,"MEAN_MOTION_DDOT":0},{"OBJECT_NAME":"SL-16 R/B","OBJECT_ID":"1988-039B","EPOCH":"2026-03-05T11:17:48.077376","MEAN_MOTION":14.19615722,"ECCENTRICITY":0.0022514,"INCLINATION":71.013,"RA_OF_ASC_NODE":77.4694,"ARG_OF_PERICENTER":340.5401,"MEAN_ANOMALY":19.4862,"EPHEMERIS_TYPE":0,"CLASSIFICATION_TYPE":"U","NORAD_CAT_ID":19120,"ELEMENT_SET_NO":999,"REV_AT_EPOCH":95778,"BSTAR":-1.2085e-5,"MEAN_MOTION_DOT":-7.4e-7,"MEAN_MOTION_DDOT":0}]
